[{"OBJECT_NAME":"KUIPER-00019","OBJECT_ID":"2025-088L","EPOCH":"2026-03-09T09:15:44.819424","MEAN_MOTION":14.79929148,"ECCENTRICITY":4.57e-5,"INCLINATION":51.9001,"RA_OF_ASC_NODE":100.439,"ARG_OF_PERICENTER":83.3518,"MEAN_ANOMALY":276.7496,"EPHEMERIS_TYPE":0,"CLASSIFICATION_TYPE":"U","NORAD_CAT_ID":63734,"ELEMENT_SET_NO":999,"REV_AT_EPOCH":4746,"BSTAR":0.00025930847,"MEAN_MOTION_DOT":1.756e-5,"MEAN_MOTION_DDOT":0},{"OBJECT_NAME":"DELTA 1 DEB","OBJECT_ID":"1966-008E","EPOCH":"2026-03-09T13:31:28.940160","MEAN_MOTION":14.71562151,"ECCENTRICITY":0.0045126,"INCLINATION":97.8603,"RA_OF_ASC_NODE":188.0099,"ARG_OF_PERICENTER":266.9066,"MEAN_ANOMALY":92.6977,"EPHEMERIS_TYPE":0,"CLASSIFICATION_TYPE":"U","NORAD_CAT_ID":2154,"ELEMENT_SET_NO":999,"REV_AT_EPOCH":16436,"BSTAR":0.00029521,"MEAN_MOTION_DOT":1.813e-5,"MEAN_MOTION_DDOT":0}]
